start=new Date('2022-04-19T00:00:00.000Z').valueOf();
sats=[{"MEAN_MOTION_DOT":"0.00012632","TLE_LINE1":"1 47384U 21005AM  22108.80528429  .00012632  00000-0  86495-3 0  9994","OBJECT_TYPE":"PAYLOAD","CENTER_NAME":"EARTH","EPOCH":"2022-04-18T19:19:36.562656","DECAY_DATE":null,"MEAN_MOTION_DDOT":"0.0000000000000","MEAN_MOTION":"15.06420240","ELEMENT_SET_NO":"999","COUNTRY_CODE":"US","ARG_OF_PERICENTER":"60.7054","REV_AT_EPOCH":"6930","RA_OF_ASC_NODE":"290.2268","SITE":"AFETR","NORAD_CAT_ID":"47384","ECCENTRICITY":"0.00017740","TIME_SYSTEM":"UTC","CLASSIFICATION_TYPE":"U","SEMIMAJOR_AXIS":"6925.287","OBJECT_NAME":"STARLINK-2104","GP_ID":"201579844","EPHEMERIS_TYPE":"0","LAUNCH_DATE":"2021-01-20","TLE_LINE2":"2 47384  53.0526 290.2268 0001774  60.7054 299.4112 15.06420240 69309","RCS_SIZE":"LARGE","PERIAPSIS":"545.923","REF_FRAME":"TEME","PERIOD":"95.591","OBJECT_ID":"2021-005AM","MEAN_ELEMENT_THEORY":"SGP4","INCLINATION":"53.0526","APOAPSIS":"548.380","BSTAR":"0.00086495000000","MEAN_ANOMALY":"299.4112","FILE":"3407402"},{"MEAN_MOTION":"15.06400661","MEAN_MOTION_DDOT":"0.0000000000000","REV_AT_EPOCH":"6929","ARG_OF_PERICENTER":"64.1533","COUNTRY_CODE":"US","ELEMENT_SET_NO":"999","OBJECT_TYPE":"PAYLOAD","TLE_LINE1":"1 47385U 21005AN  22108.75830450  .00002188  00000-0  16575-3 0  9996","MEAN_MOTION_DOT":"0.00002188","DECAY_DATE":null,"CENTER_NAME":"EARTH","EPOCH":"2022-04-18T18:11:57.508800","GP_ID":"201580095","OBJECT_NAME":"STARLINK-2105","SEMIMAJOR_AXIS":"6925.347","CLASSIFICATION_TYPE":"U","TIME_SYSTEM":"UTC","LAUNCH_DATE":"2021-01-20","EPHEMERIS_TYPE":"0","NORAD_CAT_ID":"47385","SITE":"AFETR","RA_OF_ASC_NODE":"290.4337","ECCENTRICITY":"0.00016130","OBJECT_ID":"2021-005AN","PERIOD":"95.592","MEAN_ELEMENT_THEORY":"SGP4","RCS_SIZE":"LARGE","TLE_LINE2":"2 47385  53.0556 290.4337 0001613  64.1533 295.9622 15.06400661 69294","REF_FRAME":"TEME","PERIAPSIS":"546.094","MEAN_ANOMALY":"295.9622","FILE":"3407402","BSTAR":"0.00016575000000","APOAPSIS":"548.329","INCLINATION":"53.0556"},{"TLE_LINE2":"2 47386  53.0535 290.2992 0001762  48.7377 311.3764 15.06414096 69305","RCS_SIZE":"LARGE","REF_FRAME":"TEME","PERIAPSIS":"545.950","OBJECT_ID":"2021-005AP","PERIOD":"95.591","MEAN_ELEMENT_THEORY":"SGP4","INCLINATION":"53.0535","BSTAR":"0.00113010000000","APOAPSIS":"548.391","MEAN_ANOMALY":"311.3764","FILE":"3407402","MEAN_MOTION_DOT":"0.00016598","OBJECT_TYPE":"PAYLOAD","TLE_LINE1":"1 47386U 21005AP  22108.78780375  .00016598  00000-0  11301-2 0  9991","EPOCH":"2022-04-18T18:54:26.244000","CENTER_NAME":"EARTH","DECAY_DATE":null,"MEAN_MOTION":"15.06414096","MEAN_MOTION_DDOT":"0.0000000000000","COUNTRY_CODE":"US","ELEMENT_SET_NO":"999","REV_AT_EPOCH":"6930","ARG_OF_PERICENTER":"48.7377","RA_OF_ASC_NODE":"290.2992","NORAD_CAT_ID":"47386","SITE":"AFETR","ECCENTRICITY":"0.00017620","SEMIMAJOR_AXIS":"6925.305","TIME_SYSTEM":"UTC","CLASSIFICATION_TYPE":"U","GP_ID":"201578843","OBJECT_NAME":"STARLINK-2106","LAUNCH_DATE":"2021-01-20","EPHEMERIS_TYPE":"0"},{"ECCENTRICITY":"0.00013410","SITE":"AFETR","NORAD_CAT_ID":"47387","RA_OF_ASC_NODE":"320.0618","EPHEMERIS_TYPE":"0","LAUNCH_DATE":"2021-01-20","OBJECT_NAME":"STARLINK-2108","GP_ID":"201579093","TIME_SYSTEM":"UTC","CLASSIFICATION_TYPE":"U","SEMIMAJOR_AXIS":"6925.290","DECAY_DATE":null,"CENTER_NAME":"EARTH","EPOCH":"2022-04-18T20:10:04.745280","TLE_LINE1":"1 47387U 21005AQ  22108.84033270  .00017021  00000-0  11582-2 0  9997","OBJECT_TYPE":"PAYLOAD","MEAN_MOTION_DOT":"0.00017021","ARG_OF_PERICENTER":"75.6676","REV_AT_EPOCH":"6888","ELEMENT_SET_NO":"999","COUNTRY_CODE":"US","MEAN_MOTION_DDOT":"0.0000000000000","MEAN_MOTION":"15.06419141","APOAPSIS":"548.084","BSTAR":"0.00115820000000","INCLINATION":"53.0530","FILE":"3407402","MEAN_ANOMALY":"284.4462","PERIAPSIS":"546.226","REF_FRAME":"TEME","RCS_SIZE":"LARGE","TLE_LINE2":"2 47387  53.0530 320.0618 0001341  75.6676 284.4462 15.06419141 68885","MEAN_ELEMENT_THEORY":"SGP4","PERIOD":"95.591","OBJECT_ID":"2021-005AQ"},{"MEAN_ELEMENT_THEORY":"SGP4","PERIOD":"95.592","OBJECT_ID":"2021-005AR","PERIAPSIS":"546.057","REF_FRAME":"TEME","RCS_SIZE":"LARGE","TLE_LINE2":"2 47388  53.0537 319.9960 0001647  57.4374 302.6774 15.06405140 68885","FILE":"3407402","MEAN_ANOMALY":"302.6774","APOAPSIS":"548.338","BSTAR":"0.00030294000000","INCLINATION":"53.0537","ARG_OF_PERICENTER":"57.4374","REV_AT_EPOCH":"6888","ELEMENT_SET_NO":"999","COUNTRY_CODE":"US","MEAN_MOTION_DDOT":"0.0000000000000","MEAN_MOTION":"15.06405140","DECAY_DATE":null,"EPOCH":"2022-04-18T20:31:17.468256","CENTER_NAME":"EARTH","TLE_LINE1":"1 47388U 21005AR  22108.85506329  .00004234  00000-0  30294-3 0  9993","OBJECT_TYPE":"PAYLOAD","MEAN_MOTION_DOT":"0.00004234","EPHEMERIS_TYPE":"0","LAUNCH_DATE":"2021-01-20","OBJECT_NAME":"STARLINK-2109","GP_ID":"201580345","CLASSIFICATION_TYPE":"U","TIME_SYSTEM":"UTC","SEMIMAJOR_AXIS":"6925.333","ECCENTRICITY":"0.00016470","SITE":"AFETR","NORAD_CAT_ID":"47388","RA_OF_ASC_NODE":"319.9960"},{"BSTAR":"0.00015221000000","APOAPSIS":"548.199","INCLINATION":"53.0553","FILE":"3407402","MEAN_ANOMALY":"298.1094","REF_FRAME":"TEME","PERIAPSIS":"546.227","RCS_SIZE":"LARGE","TLE_LINE2":"2 47389  53.0553 300.0944 0001424  62.0039 298.1094 15.06400215 69164","MEAN_ELEMENT_THEORY":"SGP4","OBJECT_ID":"2021-005AS","PERIOD":"95.592","ECCENTRICITY":"0.00014240","NORAD_CAT_ID":"47389","SITE":"AFETR","RA_OF_ASC_NODE":"300.0944","LAUNCH_DATE":"2021-01-20","EPHEMERIS_TYPE":"0","GP_ID":"201580596","OBJECT_NAME":"STARLINK-2110","SEMIMAJOR_AXIS":"6925.348","CLASSIFICATION_TYPE":"U","TIME_SYSTEM":"UTC","DECAY_DATE":null,"CENTER_NAME":"EARTH","EPOCH":"2022-04-18T20:02:05.403264","OBJECT_TYPE":"PAYLOAD","TLE_LINE1":"1 47389U 21005AS  22108.83478476  .00001986  00000-0  15221-3 0  9997","MEAN_MOTION_DOT":"0.00001986","REV_AT_EPOCH":"6916","ARG_OF_PERICENTER":"62.0039","COUNTRY_CODE":"US","ELEMENT_SET_NO":"999","MEAN_MOTION":"15.06400215","MEAN_MOTION_DDOT":"0.0000000000000"},{"EPOCH":"2022-04-18T19:54:08.133120","CENTER_NAME":"EARTH","DECAY_DATE":null,"MEAN_MOTION_DOT":"0.00003342","OBJECT_TYPE":"PAYLOAD","TLE_LINE1":"1 47390U 21005AT  22108.82926080  .00003342  00000-0  24322-3 0  9997","COUNTRY_CODE":"US","ELEMENT_SET_NO":"999","REV_AT_EPOCH":"6888","ARG_OF_PERICENTER":"55.9735","MEAN_MOTION":"15.06390482","MEAN_MOTION_DDOT":"0.0000000000000","ECCENTRICITY":"0.00018330","RA_OF_ASC_NODE":"320.1129","NORAD_CAT_ID":"47390","SITE":"AFETR","LAUNCH_DATE":"2021-01-20","EPHEMERIS_TYPE":"0","SEMIMAJOR_AXIS":"6925.378","TIME_SYSTEM":"UTC","CLASSIFICATION_TYPE":"U","GP_ID":"201579344","OBJECT_NAME":"STARLINK-2111","REF_FRAME":"TEME","PERIAPSIS":"545.973","TLE_LINE2":"2 47390  53.0564 320.1129 0001833  55.9735 304.1428 15.06390482 68885","RCS_SIZE":"LARGE","MEAN_ELEMENT_THEORY":"SGP4","OBJECT_ID":"2021-005AT","PERIOD":"95.593","INCLINATION":"53.0564","BSTAR":"0.00024322000000","APOAPSIS":"548.512","FILE":"3407402","MEAN_ANOMALY":"304.1428"},{"ECCENTRICITY":"0.00015730","NORAD_CAT_ID":"47391","SITE":"AFETR","RA_OF_ASC_NODE":"290.3662","LAUNCH_DATE":"2021-01-20","EPHEMERIS_TYPE":"0","GP_ID":"201579594","OBJECT_NAME":"STARLINK-2112","SEMIMAJOR_AXIS":"6925.386","TIME_SYSTEM":"UTC","CLASSIFICATION_TYPE":"U","DECAY_DATE":null,"EPOCH":"2022-04-18T18:31:50.556288","CENTER_NAME":"EARTH","OBJECT_TYPE":"PAYLOAD","TLE_LINE1":"1 47391U 21005AU  22108.77211292  .00003587  00000-0  25965-3 0  9999","MEAN_MOTION_DOT":"0.00003587","REV_AT_EPOCH":"6929","ARG_OF_PERICENTER":"63.6204","COUNTRY_CODE":"US","ELEMENT_SET_NO":"999","MEAN_MOTION":"15.06387892","MEAN_MOTION_DDOT":"0.0000000000000","BSTAR":"0.00025965000000","APOAPSIS":"548.340","INCLINATION":"53.0571","FILE":"3407402","MEAN_ANOMALY":"296.4946","REF_FRAME":"TEME","PERIAPSIS":"546.161","RCS_SIZE":"LARGE","TLE_LINE2":"2 47391  53.0571 290.3662 0001573  63.6204 296.4946 15.06387892 69297","MEAN_ELEMENT_THEORY":"SGP4","OBJECT_ID":"2021-005AU","PERIOD":"95.593"},{"BSTAR":"0.00020158000000","APOAPSIS":"548.172","INCLINATION":"53.0559","MEAN_ANOMALY":"290.5948","FILE":"3407402","RCS_SIZE":"LARGE","TLE_LINE2":"2 47392  53.0559 290.3594 0001352  69.5186 290.5948 15.06392737 69298","REF_FRAME":"TEME","PERIAPSIS":"546.300","OBJECT_ID":"2021-005AV","PERIOD":"95.593","MEAN_ELEMENT_THEORY":"SGP4","NORAD_CAT_ID":"47392","SITE":"AFETR","RA_OF_ASC_NODE":"290.3594","ECCENTRICITY":"0.00013520","GP_ID":"201579845","OBJECT_NAME":"STARLINK-2113","SEMIMAJOR_AXIS":"6925.371","TIME_SYSTEM":"UTC","CLASSIFICATION_TYPE":"U","LAUNCH_DATE":"2021-01-20","EPHEMERIS_TYPE":"0","OBJECT_TYPE":"PAYLOAD","TLE_LINE1":"1 47392U 21005AV  22108.77305814  .00002722  00000-0  20158-3 0  9993","MEAN_MOTION_DOT":"0.00002722","DECAY_DATE":null,"CENTER_NAME":"EARTH","EPOCH":"2022-04-18T18:33:12.223296","MEAN_MOTION":"15.06392737","MEAN_MOTION_DDOT":"0.0000000000000","REV_AT_EPOCH":"6929","ARG_OF_PERICENTER":"69.5186","COUNTRY_CODE":"US","ELEMENT_SET_NO":"999"},{"ECCENTRICITY":"0.00015760","RA_OF_ASC_NODE":"265.0867","SITE":"AFETR","NORAD_CAT_ID":"47393","EPHEMERIS_TYPE":"0","LAUNCH_DATE":"2021-01-20","TIME_SYSTEM":"UTC","CLASSIFICATION_TYPE":"U","SEMIMAJOR_AXIS":"6925.310","OBJECT_NAME":"STARLINK-2114","GP_ID":"201580096","CENTER_NAME":"EARTH","EPOCH":"2022-04-18T19:57:26.109216","DECAY_DATE":null,"MEAN_MOTION_DOT":"0.00015883","TLE_LINE1":"1 47393U 21005AW  22108.83155219  .00015883  00000-0  10824-2 0  9993","OBJECT_TYPE":"PAYLOAD","ELEMENT_SET_NO":"999","COUNTRY_CODE":"US","ARG_OF_PERICENTER":"66.7903","REV_AT_EPOCH":"6965","MEAN_MOTION_DDOT":"0.0000000000000","MEAN_MOTION":"15.06412463","INCLINATION":"53.0535","APOAPSIS":"548.267","BSTAR":"0.00108240000000","FILE":"3407402","MEAN_ANOMALY":"293.3252","PERIAPSIS":"546.084","REF_FRAME":"TEME","TLE_LINE2":"2 47393  53.0535 265.0867 0001576  66.7903 293.3252 15.06412463 69657","RCS_SIZE":"LARGE","MEAN_ELEMENT_THEORY":"SGP4","PERIOD":"95.591","OBJECT_ID":"2021-005AW"}];
